[{"OBJECT_NAME":"STARLINK-4071","OBJECT_ID":"2022-053R","EPOCH":"2026-03-09T12:15:43.875072","MEAN_MOTION":15.08824215,"ECCENTRICITY":0.00012572,"INCLINATION":53.2164,"RA_OF_ASC_NODE":154.9249,"ARG_OF_PERICENTER":86.5025,"MEAN_ANOMALY":273.6111,"EPHEMERIS_TYPE":0,"CLASSIFICATION_TYPE":"U","NORAD_CAT_ID":52671,"ELEMENT_SET_NO":999,"REV_AT_EPOCH":21101,"BSTAR":-0.00010472918,"MEAN_MOTION_DOT":-1.953e-5,"MEAN_MOTION_DDOT":0},{"OBJECT_NAME":"OBJECT A","OBJECT_ID":"2024-128A","EPOCH":"2026-03-09T23:23:08.128896","MEAN_MOTION":15.00647164,"ECCENTRICITY":0.00604583,"INCLINATION":61.9933,"RA_OF_ASC_NODE":216.2149,"ARG_OF_PERICENTER":112.7248,"MEAN_ANOMALY":248.0248,"EPHEMERIS_TYPE":0,"CLASSIFICATION_TYPE":"U","NORAD_CAT_ID":60235,"ELEMENT_SET_NO":999,"REV_AT_EPOCH":9111,"BSTAR":0.00034041236,"MEAN_MOTION_DOT":4.284e-5,"MEAN_MOTION_DDOT":0}]
